start=new Date('2023-06-27T00:00:00.000Z').valueOf();
sats=[{"EPOCH":"2023-06-26T15:34:59.793024","BSTAR":"0.00003738300000","CLASSIFICATION_TYPE":"U","TLE_LINE2":"2 50197  53.2181 350.1201 0000888  84.8580 275.2513 15.08835145 87249","FILE":"3943581","RA_OF_ASC_NODE":"350.1201","REF_FRAME":"TEME","ARG_OF_PERICENTER":"84.8580","ELEMENT_SET_NO":"999","OBJECT_NAME":"STARLINK-3267","MEAN_ANOMALY":"275.2513","NORAD_CAT_ID":"50197","DECAY_DATE":null,"PERIOD":"95.438","MEAN_MOTION":"15.08835145","SITE":"AFWTR","PERIAPSIS":"539.146","MEAN_MOTION_DOT":"0.00000307","TIME_SYSTEM":"UTC","SEMIMAJOR_AXIS":"6917.895","ECCENTRICITY":"0.00008880","APOAPSIS":"540.375","REV_AT_EPOCH":"8724","TLE_LINE1":"1 50197U 21125AT  23177.64930316  .00000307  00000-0  37383-4 0  9993","OBJECT_TYPE":"PAYLOAD","LAUNCH_DATE":"2021-12-18","CENTER_NAME":"EARTH","EPHEMERIS_TYPE":"0","RCS_SIZE":"LARGE","COUNTRY_CODE":"US","GP_ID":"234572077","MEAN_ELEMENT_THEORY":"SGP4","MEAN_MOTION_DDOT":"0.0000000000000","OBJECT_ID":"2021-125AT","INCLINATION":"53.2181"},{"REF_FRAME":"TEME","BSTAR":"0.00006254500000","EPOCH":"2023-06-25T16:58:23.771712","RA_OF_ASC_NODE":"354.3466","TLE_LINE2":"2 50198  53.2165 354.3466 0001320  91.8762 268.2381 15.08839125 87105","FILE":"3942789","CLASSIFICATION_TYPE":"U","PERIOD":"95.438","MEAN_MOTION":"15.08839125","OBJECT_NAME":"STARLINK-3264","ELEMENT_SET_NO":"999","ARG_OF_PERICENTER":"91.8762","DECAY_DATE":null,"NORAD_CAT_ID":"50198","MEAN_ANOMALY":"268.2381","CENTER_NAME":"EARTH","LAUNCH_DATE":"2021-12-18","REV_AT_EPOCH":"8710","TLE_LINE1":"1 50198U 21125AU  23176.70721958  .00000708  00000-0  62545-4 0  9993","OBJECT_TYPE":"PAYLOAD","PERIAPSIS":"538.835","MEAN_MOTION_DOT":"0.00000708","SITE":"AFWTR","ECCENTRICITY":"0.00013200","APOAPSIS":"540.661","TIME_SYSTEM":"UTC","SEMIMAJOR_AXIS":"6917.883","MEAN_MOTION_DDOT":"0.0000000000000","MEAN_ELEMENT_THEORY":"SGP4","GP_ID":"234553545","INCLINATION":"53.2165","OBJECT_ID":"2021-125AU","EPHEMERIS_TYPE":"0","RCS_SIZE":"LARGE","COUNTRY_CODE":"US"},{"EPHEMERIS_TYPE":"0","RCS_SIZE":"LARGE","COUNTRY_CODE":"US","MEAN_ELEMENT_THEORY":"SGP4","MEAN_MOTION_DDOT":"0.0000000000000","GP_ID":"234567620","INCLINATION":"53.2177","OBJECT_ID":"2021-125AV","PERIAPSIS":"538.804","MEAN_MOTION_DOT":"0.00000013","SITE":"AFWTR","APOAPSIS":"540.695","ECCENTRICITY":"0.00013670","SEMIMAJOR_AXIS":"6917.885","TIME_SYSTEM":"UTC","LAUNCH_DATE":"2021-12-18","CENTER_NAME":"EARTH","TLE_LINE1":"1 50199U 21125AV  23177.21874370  .00000013  00000-0  18934-4 0  9990","REV_AT_EPOCH":"8717","OBJECT_TYPE":"PAYLOAD","OBJECT_NAME":"STARLINK-3270","ARG_OF_PERICENTER":"74.7038","ELEMENT_SET_NO":"999","DECAY_DATE":null,"MEAN_ANOMALY":"285.4105","NORAD_CAT_ID":"50199","PERIOD":"95.438","MEAN_MOTION":"15.08838551","BSTAR":"0.00001893400000","EPOCH":"2023-06-26T05:14:59.455680","FILE":"3943397","TLE_LINE2":"2 50199  53.2177 352.0516 0001367  74.7038 285.4105 15.08838551 87171","RA_OF_ASC_NODE":"352.0516","CLASSIFICATION_TYPE":"U","REF_FRAME":"TEME"},{"MEAN_MOTION":"15.08840050","PERIOD":"95.438","DECAY_DATE":null,"NORAD_CAT_ID":"50200","MEAN_ANOMALY":"286.7147","OBJECT_NAME":"STARLINK-3235","ARG_OF_PERICENTER":"73.3965","ELEMENT_SET_NO":"999","REF_FRAME":"TEME","FILE":"3943683","TLE_LINE2":"2 50200  53.2180 349.8571 0001087  73.3965 286.7147 15.08840050 87252","RA_OF_ASC_NODE":"349.8571","CLASSIFICATION_TYPE":"U","BSTAR":"0.00013835000000","EPOCH":"2023-06-26T17:01:09.759072","INCLINATION":"53.2180","OBJECT_ID":"2021-125AW","MEAN_MOTION_DDOT":"0.0000000000000","MEAN_ELEMENT_THEORY":"SGP4","GP_ID":"234574296","COUNTRY_CODE":"US","RCS_SIZE":"LARGE","EPHEMERIS_TYPE":"0","CENTER_NAME":"EARTH","LAUNCH_DATE":"2021-12-18","OBJECT_TYPE":"PAYLOAD","TLE_LINE1":"1 50200U 21125AW  23177.70914073  .00001915  00000-0  13835-3 0  9998","REV_AT_EPOCH":"8725","APOAPSIS":"540.497","ECCENTRICITY":"0.00010870","TIME_SYSTEM":"UTC","SEMIMAJOR_AXIS":"6917.880","MEAN_MOTION_DOT":"0.00001915","PERIAPSIS":"538.993","SITE":"AFWTR"},{"PERIOD":"95.438","MEAN_MOTION":"15.08834815","DECAY_DATE":null,"NORAD_CAT_ID":"50201","MEAN_ANOMALY":"234.1587","OBJECT_NAME":"STARLINK-3255","ELEMENT_SET_NO":"999","ARG_OF_PERICENTER":"125.9503","REF_FRAME":"TEME","FILE":"3943683","TLE_LINE2":"2 50201  53.2179 349.9026 0001050 125.9503 234.1587 15.08834815 87256","RA_OF_ASC_NODE":"349.9026","CLASSIFICATION_TYPE":"U","BSTAR":"0.00006433900000","EPOCH":"2023-06-26T16:45:15.841728","INCLINATION":"53.2179","OBJECT_ID":"2021-125AX","MEAN_ELEMENT_THEORY":"SGP4","MEAN_MOTION_DDOT":"0.0000000000000","GP_ID":"234574293","RCS_SIZE":"LARGE","COUNTRY_CODE":"US","EPHEMERIS_TYPE":"0","LAUNCH_DATE":"2021-12-18","CENTER_NAME":"EARTH","REV_AT_EPOCH":"8725","TLE_LINE1":"1 50201U 21125AX  23177.69810002  .00000736  00000-0  64339-4 0  9990","OBJECT_TYPE":"PAYLOAD","APOAPSIS":"540.488","ECCENTRICITY":"0.00010500","TIME_SYSTEM":"UTC","SEMIMAJOR_AXIS":"6917.896","PERIAPSIS":"539.035","MEAN_MOTION_DOT":"0.00000736","SITE":"AFWTR"},{"PERIOD":"95.438","MEAN_MOTION":"15.08838458","DECAY_DATE":null,"NORAD_CAT_ID":"50202","MEAN_ANOMALY":"278.0120","OBJECT_NAME":"STARLINK-3256","ELEMENT_SET_NO":"999","ARG_OF_PERICENTER":"82.0983","REF_FRAME":"TEME","TLE_LINE2":"2 50202  53.2175 354.1467 0000981  82.0983 278.0120 15.08838458 87108","FILE":"3942789","RA_OF_ASC_NODE":"354.1467","CLASSIFICATION_TYPE":"U","BSTAR":"0.00008386400000","EPOCH":"2023-06-25T18:01:59.428128","INCLINATION":"53.2175","OBJECT_ID":"2021-125AY","MEAN_ELEMENT_THEORY":"SGP4","MEAN_MOTION_DDOT":"0.0000000000000","GP_ID":"234553539","RCS_SIZE":"LARGE","COUNTRY_CODE":"US","EPHEMERIS_TYPE":"0","LAUNCH_DATE":"2021-12-18","CENTER_NAME":"EARTH","REV_AT_EPOCH":"8710","TLE_LINE1":"1 50202U 21125AY  23176.75138227  .00001047  00000-0  83864-4 0  9999","OBJECT_TYPE":"PAYLOAD","ECCENTRICITY":"0.00009810","APOAPSIS":"540.429","TIME_SYSTEM":"UTC","SEMIMAJOR_AXIS":"6917.885","PERIAPSIS":"539.071","MEAN_MOTION_DOT":"0.00001047","SITE":"AFWTR"},{"APOAPSIS":"540.545","ECCENTRICITY":"0.00011490","TIME_SYSTEM":"UTC","SEMIMAJOR_AXIS":"6917.885","MEAN_MOTION_DOT":"0.00000235","PERIAPSIS":"538.955","SITE":"AFWTR","LAUNCH_DATE":"2021-12-18","CENTER_NAME":"EARTH","OBJECT_TYPE":"PAYLOAD","REV_AT_EPOCH":"8450","TLE_LINE1":"1 50203U 21125AZ  23176.71089962  .00000235  00000-0  32869-4 0  9994","COUNTRY_CODE":"US","RCS_SIZE":"LARGE","EPHEMERIS_TYPE":"0","INCLINATION":"53.2173","OBJECT_ID":"2021-125AZ","MEAN_ELEMENT_THEORY":"SGP4","MEAN_MOTION_DDOT":"0.0000000000000","GP_ID":"234553230","FILE":"3942789","TLE_LINE2":"2 50203  53.2173 354.3275 0001149  99.6846 260.4276 15.08838594 84504","RA_OF_ASC_NODE":"354.3275","CLASSIFICATION_TYPE":"U","BSTAR":"0.00003286900000","EPOCH":"2023-06-25T17:03:41.727168","REF_FRAME":"TEME","DECAY_DATE":null,"MEAN_ANOMALY":"260.4276","NORAD_CAT_ID":"50203","OBJECT_NAME":"STARLINK-3257","ARG_OF_PERICENTER":"99.6846","ELEMENT_SET_NO":"999","MEAN_MOTION":"15.08838594","PERIOD":"95.438"},{"REF_FRAME":"TEME","BSTAR":"0.00012804000000","EPOCH":"2023-06-26T18:04:45.162336","TLE_LINE2":"2 50204  53.2177 349.6616 0000951  89.7203 270.3898 15.08840456 84669","FILE":"3943683","RA_OF_ASC_NODE":"349.6616","CLASSIFICATION_TYPE":"U","PERIOD":"95.438","MEAN_MOTION":"15.08840456","OBJECT_NAME":"STARLINK-3254","ELEMENT_SET_NO":"999","ARG_OF_PERICENTER":"89.7203","DECAY_DATE":null,"MEAN_ANOMALY":"270.3898","NORAD_CAT_ID":"50204","CENTER_NAME":"EARTH","LAUNCH_DATE":"2021-12-18","REV_AT_EPOCH":"8466","TLE_LINE1":"1 50204U 21125BA  23177.75330049  .00001751  00000-0  12804-3 0  9995","OBJECT_TYPE":"PAYLOAD","PERIAPSIS":"539.086","MEAN_MOTION_DOT":"0.00001751","SITE":"AFWTR","ECCENTRICITY":"0.00009510","APOAPSIS":"540.402","TIME_SYSTEM":"UTC","SEMIMAJOR_AXIS":"6917.879","MEAN_MOTION_DDOT":"0.0000000000000","MEAN_ELEMENT_THEORY":"SGP4","GP_ID":"234574292","INCLINATION":"53.2177","OBJECT_ID":"2021-125BA","EPHEMERIS_TYPE":"0","RCS_SIZE":"LARGE","COUNTRY_CODE":"US"},{"PERIOD":"95.438","MEAN_MOTION":"15.08836316","OBJECT_NAME":"STARLINK-3260","ELEMENT_SET_NO":"999","ARG_OF_PERICENTER":"96.4288","DECAY_DATE":null,"MEAN_ANOMALY":"263.6815","NORAD_CAT_ID":"50205","REF_FRAME":"TEME","BSTAR":"0.00005284400000","EPOCH":"2023-06-26T16:38:38.365440","FILE":"3943683","TLE_LINE2":"2 50205  53.2186 319.9197 0000976  96.4288 263.6815 15.08836316 87688","RA_OF_ASC_NODE":"319.9197","CLASSIFICATION_TYPE":"U","MEAN_MOTION_DDOT":"0.0000000000000","MEAN_ELEMENT_THEORY":"SGP4","GP_ID":"234574790","INCLINATION":"53.2186","OBJECT_ID":"2021-125BB","EPHEMERIS_TYPE":"0","RCS_SIZE":"LARGE","COUNTRY_CODE":"US","CENTER_NAME":"EARTH","LAUNCH_DATE":"2021-12-18","TLE_LINE1":"1 50205U 21125BB  23177.69349960  .00000553  00000-0  52844-4 0  9999","REV_AT_EPOCH":"8768","OBJECT_TYPE":"PAYLOAD","PERIAPSIS":"539.081","MEAN_MOTION_DOT":"0.00000553","SITE":"AFWTR","APOAPSIS":"540.432","ECCENTRICITY":"0.00009760","TIME_SYSTEM":"UTC","SEMIMAJOR_AXIS":"6917.892"},{"TLE_LINE2":"2 50206  53.2183 352.0138 0000867  91.1926 268.9165 15.08842162 85588","FILE":"3943397","RA_OF_ASC_NODE":"352.0138","CLASSIFICATION_TYPE":"U","BSTAR":"0.00000271060000","EPOCH":"2023-06-26T05:25:34.851648","REF_FRAME":"TEME","DECAY_DATE":null,"NORAD_CAT_ID":"50206","MEAN_ANOMALY":"268.9165","OBJECT_NAME":"STARLINK-3258","ARG_OF_PERICENTER":"91.1926","ELEMENT_SET_NO":"999","MEAN_MOTION":"15.08842162","PERIOD":"95.437","ECCENTRICITY":"0.00008670","APOAPSIS":"540.339","TIME_SYSTEM":"UTC","SEMIMAJOR_AXIS":"6917.874","MEAN_MOTION_DOT":"-0.00000245","PERIAPSIS":"539.139","SITE":"AFWTR","CENTER_NAME":"EARTH","LAUNCH_DATE":"2021-12-18","OBJECT_TYPE":"PAYLOAD","TLE_LINE1":"1 50206U 21125BC  23177.22609782 -.00000245  00000-0  27106-5 0  9993","REV_AT_EPOCH":"8558","COUNTRY_CODE":"US","RCS_SIZE":"LARGE","EPHEMERIS_TYPE":"0","INCLINATION":"53.2183","OBJECT_ID":"2021-125BC","MEAN_ELEMENT_THEORY":"SGP4","MEAN_MOTION_DDOT":"0.0000000000000","GP_ID":"234567892"}];
